PRAETORIAN SDA_605      
1 65568U 25203D   26068.59264765  .00000070  00000+0  52426-4 0  9997
2 65568  81.2983 102.8978 0009550  98.6469 261.5769 13.83528896 24925
SDA_1670                
1 65980U 25230G   26068.72431098  .00000114  00000+0  90953-4 0  9991
2 65980  81.2981 303.9295 0003873  76.4422 283.7167 13.84837821 20041
