[{"OBJECT_NAME":"PRAETORIAN SDA_605","OBJECT_ID":"2025-203D","EPOCH":"2026-03-09T14:13:24.756960","MEAN_MOTION":13.83528896,"ECCENTRICITY":0.000955,"INCLINATION":81.2983,"RA_OF_ASC_NODE":102.8978,"ARG_OF_PERICENTER":98.6469,"MEAN_ANOMALY":261.5769,"EPHEMERIS_TYPE":0,"CLASSIFICATION_TYPE":"U","NORAD_CAT_ID":65568,"ELEMENT_SET_NO":999,"REV_AT_EPOCH":2492,"BSTAR":5.2426e-5,"MEAN_MOTION_DOT":7.0e-7,"MEAN_MOTION_DDOT":0},{"OBJECT_NAME":"SDA_1670","OBJECT_ID":"2025-230G","EPOCH":"2026-03-09T17:23:00.469536","MEAN_MOTION":13.84837821,"ECCENTRICITY":0.00038733,"INCLINATION":81.2981,"RA_OF_ASC_NODE":303.9295,"ARG_OF_PERICENTER":76.4422,"MEAN_ANOMALY":283.7167,"EPHEMERIS_TYPE":0,"CLASSIFICATION_TYPE":"U","NORAD_CAT_ID":65980,"ELEMENT_SET_NO":999,"REV_AT_EPOCH":2004,"BSTAR":9.0952862e-5,"MEAN_MOTION_DOT":1.14e-6,"MEAN_MOTION_DDOT":0}]
